#dP2023  5 31  6  0  0.00000000      96 __u+U ITR00 EXT  IAC
## 2264 280800.00000000   900.00000000 60095 0.2500000000000
+  119   C06C07C08C09C10C11C12C13C14C16C19C20C21C22C23C24C25
+        C26C27C28C29C30C32C33C34C35C36C37C38C39C40C41C42C43
+        C44C45C46E02E03E04E05E07E08E09E10E11E12E13E14E15E18
+        E19E21E24E25E26E27E30E31E33E34E36G01G02G03G04G05G06
+        G07G08G09G10G11G12G13G14G15G16G17G18G19G20G21G22G23
+        G24G25G26G27G28G29G30G31G32J02J03J04R01R02R03R04R05
+        R07R08R09R11R12R13R14R15R16R17R18R19R20R21R22R24R25
++         8  9 11  9  8 10  7 11 10  8  9  8  8  9  8  8  8
++         8  9  9  8  9  9  9  8  8  8  9 10  9  9  9  9 10
++         9  9  8  8  8  8  8  8  7  8  9  8  8  8  8  7  8
++         9  9  7  8  7  8  8  8  9  8  8  8  9  8  8  8  9
++         8  8  7  8  9  8  8  8  7  8  7  8  8  9  9  9  8
++         8  8  8  9  8  8  8  8  8  9  9 10  9  8  9  7  8
++         8  8  8  8  8  8  8  8  8  9  9  9  9  9  9 10  9
%c M  cc GPS ccc cccc cccc cccc cccc ccccc ccccc ccccc ccccc
%c cc cc ccc ccc cccc cccc cccc cccc ccccc ccccc ccccc ccccc
%f  0.0000000  0.000000000  0.00000000000  0.000000000000000
%f  0.0000000  0.000000000  0.00000000000  0.000000000000000
%i    0    0    0    0      0      0      0      0         0
%i    0    0    0    0      0      0      0      0         0
/* IAC                                ULTRA-RAPID PREDICTION
/* S/V CLOCKS ARE ALIGNED TO GNSS TIME                      
/* G:C1WC2W R:C1PC2P E:C1XC5X C:C2IC6I J:C1CC2S             
/* PCV:IGS20_2247 OL/AL:FES2004  NONE     YN ORB:CoN CLK:CoN
*  2023 05 31 17 15  0.00000000
PC06  -4364.609314  24920.882878  33787.182673   -185.021812
PC07 -17615.876666  34743.253975 -16337.485507   -102.435985
PC08  -3413.349820  39393.521893 -14399.286484    471.927532
PC09   6247.058790  28455.551951  31089.188391    589.059963
PC10  -9966.614979  34566.269125 -22103.335172    -73.206165
PC11  -7597.259131 -16469.483055  21273.001193    649.247518
PC12  13253.627109 -11567.496858  21689.973335    678.912450
PC13   1714.124007  41369.387737  -7083.535605    286.620549
PC14   1583.992943 -20666.301052 -18635.937894    340.445300
PC16  -7559.821711  23192.099887  34651.059608     59.579753
PC19   7229.288669  14823.690226  22542.098853   -916.859758
PC20  -8833.317583  22975.121943  13198.454119    533.197386
PC21  20887.883653 -17809.916864   4949.880667   -919.134468
PC22  19960.522545  -2270.769456  19355.975772   -462.357205
PC23 -17653.187851  -9655.416340  19344.321458   -943.897641
PC24   1170.552483 -25173.227732 -12017.957450      9.521327
PC25 -12822.184774 -24037.263930   6084.953939    137.830679
PC26  12359.929874 -12312.629026 -21799.145458   -128.173661
PC27 -20825.206866   7349.194266 -17078.443338    148.363175
PC28 -27410.709060  -4630.460792  -2463.583828    110.004114
PC29  18128.345074  14508.928868 -15490.860898    127.828276
PC30  -2718.336136  15762.279257 -22879.520376     -0.740687
PC32 -20768.128690  17976.171045  -4972.070532   -554.638117
PC33  -7282.146394 -14823.543271 -22483.633858   -888.541026
PC34   1237.841841 -16044.283591  22780.650327    182.923377
PC35  27568.119167   4081.553913   1794.003779    616.813824
PC36  11842.647189  24683.822920  -5366.924848   -409.565060
PC37 -13232.574412  10800.912893  22080.365812   -784.273688
PC38  -8376.904826  35617.661357 -20814.391494     82.046985
PC39 -12171.981815  21089.394424  34471.333887     -3.135210
PC40 -24640.304285  30257.296655 -16308.737859    -24.840345
PC41 -19706.143096   1741.587604 -19633.006184   -931.466711
PC42   9930.223652 -23119.230459 -11988.672819   -668.392437
PC43 -17328.152562 -14875.672079  16007.968829     24.024136
PC44  20751.998321  -8063.461739  16825.947267    123.805421
PC45  17545.740423   9171.322652 -19655.710634   -104.556236
PC46    -48.222916  25712.994817  10802.253523    -58.106325
PE02 -17485.667078  13471.343553  19712.792514     41.361070
PE03 -27516.204352  10340.619186   3556.493451    -21.856646
PE04  13615.081103 -17881.385483 -19247.700403   -134.558803
PE05 -25530.188471  -3453.726759 -14572.233464    -62.297049
PE07   8317.107780  15190.830299  24014.560782    -49.223798
PE08 -13944.710059  17762.618982  19150.718258    -91.743740
PE09  -8146.116007 -15089.631644 -24119.929571    -33.995754
PE10  -6788.635953 -22578.085931  17884.065786   -537.801937
PE11 -15608.017158 -23435.481956   9083.750003   2088.023706
PE12   2474.303805 -18408.911791  23031.208569   -561.338391
PE13  15099.975496  23489.728459  -9837.213077    -19.218338
PE14 -25065.221889  -5687.484346  11961.079193    240.927453
PE15  -2710.509996  18172.385555 -23211.688007    -25.956997
PE18  15149.619343  14242.482966 -19660.235041    128.348261
PE19  28308.108843  -8586.739954  -1009.119673  -2405.671290
PE21  15263.453263   7405.640508 -24256.850594   -532.316366
PE24  -3543.471675 -25610.951408  14414.821631   -129.421186
PE25 -15137.598175  -7789.124454  24219.498589   -605.989763
PE26  23930.269969  14414.902687   9784.190853    120.517332
PE27   4119.029185  25174.811258 -15007.017817    -63.215384
PE30  -9751.254568  27723.879117   3479.290889   -217.927125
PE31   9325.418922 -27935.351335  -2970.237917   -524.926102
PE33  18786.706224  -2156.971907  22771.904387   -443.737629
PE34 -18692.776203   2348.237115 -22844.030701    -48.358937
PE36 -23837.693459 -14976.218702  -9133.378557    -64.375049
PG01  20887.129650  12952.283076  10173.697966    181.402979
PG02  18649.554976  18951.165514  -2388.474819   -590.461471
PG03  14297.687740   3642.334900  21949.901365   -286.109528
PG04  25056.037232   1237.914016   8908.973020     55.929466
PG05  -7064.405592 -19486.687736 -16715.878706   -129.323655
PG06   1664.863499 -17479.740729  19955.348689    586.939934
PG07  17789.476417  -1310.546784 -19368.214233    164.348412
PG08  17695.114302   8457.695266 -18161.663216   -125.138771
PG09  25544.441782  -7319.642408   -818.250853   -146.427658
PG10 -11076.283447  23131.271829  -6068.581331    -39.225260
PG11 -10940.033538 -22460.074032   9085.316460   -217.567848
PG12 -13029.585719  -7701.862468  21552.109757   -382.860734
PG13  -9823.445696 -13459.170593 -20907.102850    527.680421
PG14  13536.138838 -21023.695140  -8714.857213     75.405204
PG15 -18943.262520  -6819.750616 -17910.278539     44.605297
PG16   2350.159025  21905.509340 -14801.658782   -495.994350
PG17  17432.066781 -13569.410225  15252.887607    716.808017
PG18 -15363.822602   4550.871688 -21212.341920   -289.048720
PG19   9458.239581 -14720.577105  19661.266663    324.351922
PG20  -2941.466864 -25150.043850  -8291.804971    430.544520
PG21  21162.991830  16738.780513   2213.656300    153.464845
PG22  -5513.678213  15720.721169  21104.925844    490.480763
PG23 -15283.919019  14116.745562 -16413.844008     28.933285
PG24 -21949.542647 -14325.343198   5148.425250   -208.651040
PG25 -16254.659174   5816.112636  19799.139726    446.679553
PG26  -3728.049179  25975.200842  -2759.117329    239.963368
PG27   6082.849413  14091.305745 -21953.245106     25.921735
PG28  -3134.567137  16805.423929  20306.697609     81.478544
PG29 -26372.752933   3191.225239   1516.770612   -601.321729
PG30  10188.255554 -12041.856757 -21239.544687   -513.929740
PG31   7150.537014  21669.849830  13050.018390   -217.213546
PG32 -14283.030901  15369.738988  16349.411389   -489.671863
PJ02 -30958.595282  26187.409402  16790.778224     -0.240486
PJ03 -25837.925600  17205.978613 -23901.153353      5.379523
PJ04 -25559.148652  33428.786171    677.006925     94.942109
PR01  20818.663482 -14199.867868   3902.180130     58.530872
PR02  12443.061501 -17357.972588 -13947.442347    -22.767946
PR03  -3506.972914 -10826.042885 -22783.666971     78.836685
PR04 -16992.491972   1663.994732 -18914.698176    189.360034
PR05 -21374.547318  13068.937610  -4724.609739    113.413747
PR07   4373.214524  10275.978077  22973.860035     57.050806
PR08  17174.008018  -1800.938867  18847.654953    -71.062513
PR09  -1094.279411  23745.414657   9382.640453    123.241487
PR11  11178.981107  10761.881507 -20239.201397    -68.445116
PR12   9081.127038 -10145.474290 -21545.999410     27.727694
PR13   2190.307552 -22822.677096 -11191.466097    -35.635356
PR14  -7041.015797 -23193.009602   7928.928130     24.710959
PR15 -11305.385347  -9536.791004  20801.347616     88.958135
PR16  -8979.905254   9874.099200  21756.624213     15.137072
PR17 -15615.664189 -13959.562492  14586.717147    634.877721
PR18 -23500.534946  -9765.066836  -1280.004751     84.284158
PR19 -20150.445345  -1961.328882 -15526.013581   -234.620096
PR20  -2663.845247  10175.265944 -23239.717181    -93.841395
PR21  16610.741467  13915.335870 -13444.468780    -11.711263
PR22  23329.717635  10086.225037   2271.446061     79.672470
PR24   1884.090201 -10947.104331  22972.129937     -9.446975
PR25  14724.937835  14827.256785 -14615.443083     61.074636
EOF
